XRISM                   
1 57800U 23137A   23354.56192459  .00006448  00000+0  51340-3 0  9991
2 57800  31.0042  73.9322 0010116 228.3054 131.6715 14.98959779 15616
